{"type": "FeatureCollection", "features": [ {"type": "Feature", "properties": {"norad_id": 58662, "name": "TIANMU-1 21", "group": "weather", "lat": 82.53117290059954, "lon": 23.420671589063925, "alt_km": 466.25122783162624, "timestamp": "2025-12-21T05:44:51.219386+00:00", "meta": {"OBJECT_NAME": "TIANMU-1 21", "OBJECT_ID": "2023-208C", "EPOCH": "2025-12-20T21:31:08.254848", "MEAN_MOTION": 15.31711843, "ECCENTRICITY": 0.00062236, "INCLINATION": 97.4382, "RA_OF_ASC_NODE": 108.3191, "ARG_OF_PERICENTER": 225.9295, "MEAN_ANOMALY": 134.1434, "EPHEMERIS_TYPE": 0, "CLASSIFICATION_TYPE": "U", "NORAD_CAT_ID": 58662, "ELEMENT_SET_NO": 999, "REV_AT_EPOCH": 11024, "BSTAR": 0.00024787392, "MEAN_MOTION_DOT": 7.515e-05, "MEAN_MOTION_DDOT": 0}, "tle": {"line1": "1 58662U 23208C   25354.89662332  .00007515  00000+0  24787-3 0  9998", "line2": "2 58662  97.4382 108.3191 0006223 225.9295 134.1434 15.31711843110244"}}, "geometry": {"type": "Point", "coordinates": [23.420671589063925, 82.53117290059954]}}, {"type": "Feature", "properties": {"norad_id": 58663, "name": "TIANMU-1 22", "group": "weather", "lat": -69.25576795488078, "lon": -93.86450028732662, "alt_km": 488.0035318038872, "timestamp": "2025-12-21T05:44:51.219396+00:00", "meta": {"OBJECT_NAME": "TIANMU-1 22", "OBJECT_ID": "2023-208D", "EPOCH": "2025-12-20T22:21:58.142880", "MEAN_MOTION": 15.27731445, "ECCENTRICITY": 0.00027635, "INCLINATION": 97.4389, "RA_OF_ASC_NODE": 106.0089, "ARG_OF_PERICENTER": 243.4887, "MEAN_ANOMALY": 116.6069, "EPHEMERIS_TYPE": 0, "CLASSIFICATION_TYPE": "U", "NORAD_CAT_ID": 58663, "ELEMENT_SET_NO": 999, "REV_AT_EPOCH": 11008, "BSTAR": 0.00023023669, "MEAN_MOTION_DOT": 6.163e-05, "MEAN_MOTION_DDOT": 0}, "tle": {"line1": "1 58663U 23208D   25354.93192295  .00006163  00000+0  23024-3 0  9991", "line2": "2 58663  97.4389 106.0089 0002763 243.4887 116.6069 15.27731445110086"}}, "geometry": {"type": "Point", "coordinates": [-93.86450028732662, -69.25576795488078]}}, {"type": "Feature", "properties": {"norad_id": 58700, "name": "TIANMU-1 15", "group": "weather", "lat": -75.81686577123396, "lon": -152.08267617366948, "alt_km": 495.9871456725032, "timestamp": "2025-12-21T05:44:51.219408+00:00", "meta": {"OBJECT_NAME": "TIANMU-1 15", "OBJECT_ID": "2024-004A", "EPOCH": "2025-12-20T22:12:44.260128", "MEAN_MOTION": 15.24505813, "ECCENTRICITY": 0.00059571, "INCLINATION": 97.4621, "RA_OF_ASC_NODE": 176.3642, "ARG_OF_PERICENTER": 255.2718, "MEAN_ANOMALY": 104.7859, "EPHEMERIS_TYPE": 0, "CLASSIFICATION_TYPE": "U", "NORAD_CAT_ID": 58700, "ELEMENT_SET_NO": 999, "REV_AT_EPOCH": 10859, "BSTAR": 0.00020244585, "MEAN_MOTION_DOT": 4.907e-05, "MEAN_MOTION_DDOT": 0}, "tle": {"line1": "1 58700U 24004A   25354.92551227  .00004907  00000+0  20245-3 0  9997", "line2": "2 58700  97.4621 176.3642 0005957 255.2718 104.7859 15.24505813108597"}}, "geometry": {"type": "Point", "coordinates": [-152.08267617366948, -75.81686577123396]}}, {"type": "Feature", "properties": {"norad_id": 58701, "name": "TIANMU-1 16", "group": "weather", "lat": 4.310464225216066, "lon": 175.49306798461032, "alt_km": 495.5459210704994, "timestamp": "2025-12-21T05:44:51.219418+00:00", "meta": {"OBJECT_NAME": "TIANMU-1 16", "OBJECT_ID": "2024-004B", "EPOCH": "2025-12-20T21:51:08.057088", "MEAN_MOTION": 15.24532941, "ECCENTRICITY": 0.00043302, "INCLINATION": 97.456, "RA_OF_ASC_NODE": 175.7313, "ARG_OF_PERICENTER": 258.9484, "MEAN_ANOMALY": 101.1266, "EPHEMERIS_TYPE": 0, "CLASSIFICATION_TYPE": "U", "NORAD_CAT_ID": 58701, "ELEMENT_SET_NO": 999, "REV_AT_EPOCH": 10859, "BSTAR": 0.00020134247, "MEAN_MOTION_DOT": 4.883e-05, "MEAN_MOTION_DDOT": 0}, "tle": {"line1": "1 58701U 24004B   25354.91050992  .00004883  00000+0  20134-3 0  9990", "line2": "2 58701  97.4560 175.7313 0004330 258.9484 101.1266 15.24532941108597"}}, "geometry": {"type": "Point", "coordinates": [175.49306798461032, 4.310464225216066]}}, {"type": "Feature", "properties": {"norad_id": 58702, "name": "TIANMU-1 17", "group": "weather", "lat": 82.53106100728336, "lon": 84.52386519670769, "alt_km": 486.95114553837266, "timestamp": "2025-12-21T05:44:51.219428+00:00", "meta": {"OBJECT_NAME": "TIANMU-1 17", "OBJECT_ID": "2024-004C", "EPOCH": "2025-12-20T23:03:07.656192", "MEAN_MOTION": 15.24577137, "ECCENTRICITY": 0.00035148, "INCLINATION": 97.4595, "RA_OF_ASC_NODE": 176.1953, "ARG_OF_PERICENTER": 260.5389, "MEAN_ANOMALY": 99.5451, "EPHEMERIS_TYPE": 0, "CLASSIFICATION_TYPE": "U", "NORAD_CAT_ID": 58702, "ELEMENT_SET_NO": 999, "REV_AT_EPOCH": 10859, "BSTAR": 0.00019366876, "MEAN_MOTION_DOT": 4.7e-05, "MEAN_MOTION_DDOT": 0}, "tle": {"line1": "1 58702U 24004C   25354.96050528  .00004700  00000+0  19367-3 0  9995", "line2": "2 58702  97.4595 176.1953 0003514 260.5389  99.5451 15.24577137108599"}}, "geometry": {"type": "Point", "coordinates": [84.52386519670769, 82.53106100728336]}}, {"type": "Feature", "properties": {"norad_id": 58703, "name": "TIANMU-1 18", "group": "weather", "lat": -1.4258360719946177, "lon": -3.5167532362580864, "alt_km": 494.88870716821384, "timestamp": "2025-12-21T05:44:51.219438+00:00", "meta": {"OBJECT_NAME": "TIANMU-1 18", "OBJECT_ID": "2024-004D", "EPOCH": "2025-12-20T22:39:12.729312", "MEAN_MOTION": 15.24561707, "ECCENTRICITY": 0.000286, "INCLINATION": 97.4612, "RA_OF_ASC_NODE": 176.3758, "ARG_OF_PERICENTER": 258.115, "MEAN_ANOMALY": 101.9767, "EPHEMERIS_TYPE": 0, "CLASSIFICATION_TYPE": "U", "NORAD_CAT_ID": 58703, "ELEMENT_SET_NO": 999, "REV_AT_EPOCH": 10859, "BSTAR": 0.00019125318, "MEAN_MOTION_DOT": 4.638e-05, "MEAN_MOTION_DDOT": 0}, "tle": {"line1": "1 58703U 24004D   25354.94389733  .00004638  00000+0  19125-3 0  9999", "line2": "2 58703  97.4612 176.3758 0002860 258.1150 101.9767 15.24561707108591"}}, "geometry": {"type": "Point", "coordinates": [-3.5167532362580864, -1.4258360719946177]}}, {"type": "Feature", "properties": {"norad_id": 58990, "name": "INSAT-3DS", "group": "weather", "lat": -0.006281847838912581, "lon": -101.63019346670566, "alt_km": 35781.490167841526, "timestamp": "2025-12-21T05:44:51.219450+00:00", "meta": {"OBJECT_NAME": "INSAT-3DS", "OBJECT_ID": "2024-033A", "EPOCH": "2025-12-20T22:10:53.090112", "MEAN_MOTION": 1.00272163, "ECCENTRICITY": 0.00010979, "INCLINATION": 0.0538, "RA_OF_ASC_NODE": 103.3179, "ARG_OF_PERICENTER": 169.5805, "MEAN_ANOMALY": 231.6798, "EPHEMERIS_TYPE": 0, "CLASSIFICATION_TYPE": "U", "NORAD_CAT_ID": 58990, "ELEMENT_SET_NO": 999, "REV_AT_EPOCH": 4528, "BSTAR": 0, "MEAN_MOTION_DOT": -1.33e-06, "MEAN_MOTION_DDOT": 0}, "tle": {"line1": "1 58990U 24033A   25354.92422558 -.00000133  00000+0  00000+0 0  9995", "line2": "2 58990   0.0538 103.3179 0001097 169.5805 231.6798  1.00272163 45281"}}, "geometry": {"type": "Point", "coordinates": [-101.63019346670566, -0.006281847838912581]}}, {"type": "Feature", "properties": {"norad_id": 59051, "name": "METEOR-M2 4", "group": "weather", "lat": 61.97480408649895, "lon": 148.68941411785593, "alt_km": 814.9780150273891, "timestamp": "2025-12-21T05:44:51.219495+00:00", "meta": {"OBJECT_NAME": "METEOR-M2 4", "OBJECT_ID": "2024-039A", "EPOCH": "2025-12-20T22:26:52.541376", "MEAN_MOTION": 14.22402464, "ECCENTRICITY": 0.00066006, "INCLINATION": 98.6778, "RA_OF_ASC_NODE": 311.7161, "ARG_OF_PERICENTER": 334.3272, "MEAN_ANOMALY": 25.7577, "EPHEMERIS_TYPE": 0, "CLASSIFICATION_TYPE": "U", "NORAD_CAT_ID": 59051, "ELEMENT_SET_NO": 999, "REV_AT_EPOCH": 9392, "BSTAR": 2.3875344e-05, "MEAN_MOTION_DOT": 9e-08, "MEAN_MOTION_DDOT": 0}, "tle": {"line1": "1 59051U 24039A   25354.93533034  .00000009  00000+0  23875-4 0  9994", "line2": "2 59051  98.6778 311.7161 0006600 334.3272  25.7577 14.22402464 93928"}}, "geometry": {"type": "Point", "coordinates": [148.68941411785593, 61.97480408649895]}}, {"type": "Feature", "properties": {"norad_id": 60133, "name": "GOES 19", "group": "weather", "lat": -0.007296077792729982, "lon": 101.08190525847405, "alt_km": 35789.755261397775, "timestamp": "2025-12-21T05:44:51.219509+00:00", "meta": {"OBJECT_NAME": "GOES 19", "OBJECT_ID": "2024-119A", "EPOCH": "2025-12-20T21:25:57.392832", "MEAN_MOTION": 1.00270636, "ECCENTRICITY": 0.00010857, "INCLINATION": 0.0199, "RA_OF_ASC_NODE": 182.6617, "ARG_OF_PERICENTER": 142.117, "MEAN_ANOMALY": 11.2391, "EPHEMERIS_TYPE": 0, "CLASSIFICATION_TYPE": "U", "NORAD_CAT_ID": 60133, "ELEMENT_SET_NO": 999, "REV_AT_EPOCH": 517, "BSTAR": 0, "MEAN_MOTION_DOT": -2.25e-06, "MEAN_MOTION_DDOT": 0}, "tle": {"line1": "1 60133U 24119A   25354.89302538 -.00000225  00000+0  00000+0 0  9995", "line2": "2 60133   0.0199 182.6617 0001085 142.1170  11.2391  1.00270636  5170"}}, "geometry": {"type": "Point", "coordinates": [101.08190525847405, -0.007296077792729982]}}, {"type": "Feature", "properties": {"norad_id": 65815, "name": "FENGYUN 3H", "group": "weather", "lat": -77.3505324077529, "lon": -22.586474386800763, "alt_km": 833.5116159537747, "timestamp": "2025-12-21T05:44:51.219521+00:00", "meta": {"OBJECT_NAME": "FENGYUN 3H", "OBJECT_ID": "2025-219A", "EPOCH": "2025-12-20T21:40:16.930272", "MEAN_MOTION": 14.19906691, "ECCENTRICITY": 7.395e-05, "INCLINATION": 98.6596, "RA_OF_ASC_NODE": 294.3164, "ARG_OF_PERICENTER": 105.6491, "MEAN_ANOMALY": 254.4767, "EPHEMERIS_TYPE": 0, "CLASSIFICATION_TYPE": "U", "NORAD_CAT_ID": 65815, "ELEMENT_SET_NO": 999, "REV_AT_EPOCH": 1208, "BSTAR": 4.12111e-05, "MEAN_MOTION_DOT": 4.4e-07, "MEAN_MOTION_DDOT": 0}, "tle": {"line1": "1 65815U 25219A   25354.90297373  .00000044  00000+0  41211-4 0  9993", "line2": "2 65815  98.6596 294.3164 0000739 105.6491 254.4767 14.19906691 12086"}}, "geometry": {"type": "Point", "coordinates": [-22.586474386800763, -77.3505324077529]}}]}